[{"OBJECT_NAME":"NANOSATC-BR1","OBJECT_ID":"2014-033Q","EPOCH":"2026-03-09T23:35:03.168384","MEAN_MOTION":15.28136801,"ECCENTRICITY":0.00046435,"INCLINATION":98.0845,"RA_OF_ASC_NODE":92.7804,"ARG_OF_PERICENTER":147.6715,"MEAN_ANOMALY":212.4808,"EPHEMERIS_TYPE":0,"CLASSIFICATION_TYPE":"U","NORAD_CAT_ID":40024,"ELEMENT_SET_NO":999,"REV_AT_EPOCH":63881,"BSTAR":0.00074295057,"MEAN_MOTION_DOT":0.00020336,"MEAN_MOTION_DDOT":0},{"OBJECT_NAME":"STARLINK-35482","OBJECT_ID":"2025-253AD","EPOCH":"2026-03-09T09:48:31.733568","MEAN_MOTION":15.27595146,"ECCENTRICITY":0.00014555,"INCLINATION":42.9996,"RA_OF_ASC_NODE":213.9038,"ARG_OF_PERICENTER":156.1143,"MEAN_ANOMALY":203.9777,"EPHEMERIS_TYPE":0,"CLASSIFICATION_TYPE":"U","NORAD_CAT_ID":66346,"ELEMENT_SET_NO":999,"REV_AT_EPOCH":2020,"BSTAR":0.0009457212,"MEAN_MOTION_DOT":0.00025865,"MEAN_MOTION_DDOT":0}]
